{
  "links" : {
    "next" : "https://api.nasa.gov/neo/rest/v1/neo/browse?page=28&size=20&api_key=jqAGvNAwUIBu4fl9FSOjdm3V4F7hIglRzI6pdX9d",
    "prev" : "https://api.nasa.gov/neo/rest/v1/neo/browse?page=26&size=20&api_key=jqAGvNAwUIBu4fl9FSOjdm3V4F7hIglRzI6pdX9d",
    "self" : "https://api.nasa.gov/neo/rest/v1/neo/browse?page=27&size=20&api_key=jqAGvNAwUIBu4fl9FSOjdm3V4F7hIglRzI6pdX9d"
  },
  "page" : {
    "size" : 20,
    "total_elements" : 20750,
    "total_pages" : 1038,
    "number" : 27
  },
  "near_earth_objects" : [ {
    "links" : {
      "self" : "https://api.nasa.gov/neo/rest/v1/neo/3335421?api_key=jqAGvNAwUIBu4fl9FSOjdm3V4F7hIglRzI6pdX9d"
    },
    "neo_reference_id" : "3335421",
    "name" : "(2006 LD)",
    "designation" : "2006 LD",
    "nasa_jpl_url" : "http://ssd.jpl.nasa.gov/sbdb.cgi?sstr=3335421",
    "absolute_magnitude_h" : 23.5,
    "estimated_diameter" : {
      "kilometers" : {
        "estimated_diameter_min" : 0.0530340723,
        "estimated_diameter_max" : 0.1185877909
      },
      "meters" : {
        "estimated_diameter_min" : 53.0340723319,
        "estimated_diameter_max" : 118.5877908577
      },
      "miles" : {
        "estimated_diameter_min" : 0.0329538346,
        "estimated_diameter_max" : 0.0736870142
      },
      "feet" : {
        "estimated_diameter_min" : 173.9963058693,
        "estimated_diameter_max" : 389.0675677576
      }
    },
    "is_potentially_hazardous_asteroid" : false,
    "close_approach_data" : [ {
      "close_approach_date" : "2006-05-30",
      "epoch_date_close_approach" : 1148972400000,
      "relative_velocity" : {
        "kilometers_per_second" : "12.5602975614",
        "kilometers_per_hour" : "45217.0712209867",
        "miles_per_hour" : "28096.1296150626"
      },
      "miss_distance" : {
        "astronomical" : "0.0988459763",
        "lunar" : "38.451084137",
        "kilometers" : "14787147",
        "miles" : "9188307"
      },
      "orbiting_body" : "Earth"
    } ],
    "orbital_data" : {
      "orbit_id" : "6",
      "orbit_determination_date" : "2017-04-06 09:08:30",
      "first_observation_date" : "2006-06-01",
      "last_observation_date" : "2006-06-02",
      "data_arc_in_days" : 1,
      "observations_used" : 15,
      "orbit_uncertainty" : "9",
      "minimum_orbit_intersection" : ".0941822",
      "jupiter_tisserand_invariant" : "5.107",
      "epoch_osculation" : "2453888.5",
      "eccentricity" : ".1007065774264493",
      "semi_major_axis" : "1.230945571540539",
      "inclination" : "24.54752567744659",
      "ascending_node_longitude" : "67.77537746139198",
      "orbital_period" : "498.834752767426",
      "perihelion_distance" : "1.106981256032447",
      "perihelion_argument" : "187.6237408394452",
      "aphelion_distance" : "1.354909887048632",
      "perihelion_time" : "2453895.225034032355",
      "mean_anomaly" : "355.1466648259437",
      "mean_motion" : ".7216818756167224",
      "equinox" : "J2000",
      "orbit_class" : {
        "orbit_class_type" : "AMO",
        "orbit_class_range" : "1.017 AU < q (perihelion) < 1.3 AU",
        "orbit_class_description" : "Near-Earth asteroid orbits similar to that of 1221 Amor"
      }
    },
    "is_sentry_object" : false
  }, {
    "links" : {
      "self" : "https://api.nasa.gov/neo/rest/v1/neo/3335613?api_key=jqAGvNAwUIBu4fl9FSOjdm3V4F7hIglRzI6pdX9d"
    },
    "neo_reference_id" : "3335613",
    "name" : "(2006 LD1)",
    "designation" : "2006 LD1",
    "nasa_jpl_url" : "http://ssd.jpl.nasa.gov/sbdb.cgi?sstr=3335613",
    "absolute_magnitude_h" : 20.9,
    "estimated_diameter" : {
      "kilometers" : {
        "estimated_diameter_min" : 0.1756123185,
        "estimated_diameter_max" : 0.3926810818
      },
      "meters" : {
        "estimated_diameter_min" : 175.6123184804,
        "estimated_diameter_max" : 392.6810818086
      },
      "miles" : {
        "estimated_diameter_min" : 0.1091204019,
        "estimated_diameter_max" : 0.2440006365
      },
      "feet" : {
        "estimated_diameter_min" : 576.1559189633,
        "estimated_diameter_max" : 1288.3238004408
      }
    },
    "is_potentially_hazardous_asteroid" : true,
    "close_approach_data" : [ {
      "close_approach_date" : "2006-06-15",
      "epoch_date_close_approach" : 1150354800000,
      "relative_velocity" : {
        "kilometers_per_second" : "19.6214911015",
        "kilometers_per_hour" : "70637.3679654187",
        "miles_per_hour" : "43891.313444957"
      },
      "miss_distance" : {
        "astronomical" : "0.0393927941",
        "lunar" : "15.323797226",
        "kilometers" : "5893078.5",
        "miles" : "3661789.25"
      },
      "orbiting_body" : "Earth"
    } ],
    "orbital_data" : {
      "orbit_id" : "10",
      "orbit_determination_date" : "2017-04-06 09:08:29",
      "first_observation_date" : "2006-06-03",
      "last_observation_date" : "2006-06-15",
      "data_arc_in_days" : 12,
      "observations_used" : 60,
      "orbit_uncertainty" : "8",
      "minimum_orbit_intersection" : ".0225783",
      "jupiter_tisserand_invariant" : "3.184",
      "epoch_osculation" : "2453896.5",
      "eccentricity" : ".6985874910238739",
      "semi_major_axis" : "2.332295291538348",
      "inclination" : "5.962256008074835",
      "ascending_node_longitude" : "66.9002609110395",
      "orbital_period" : "1300.989316293063",
      "perihelion_distance" : ".7029829754957791",
      "perihelion_argument" : "274.544612004367",
      "aphelion_distance" : "3.961607607580917",
      "perihelion_time" : "2453947.837785818619",
      "mean_anomaly" : "345.7941931857189",
      "mean_motion" : ".2767124952461222",
      "equinox" : "J2000",
      "orbit_class" : {
        "orbit_class_type" : "APO",
        "orbit_class_range" : "a (semi-major axis) > 1.0 AU; q (perihelion) < 1.017 AU",
        "orbit_class_description" : "Near-Earth asteroid orbits which cross the Earth’s orbit similar to that of 1862 Apollo"
      }
    },
    "is_sentry_object" : false
  }, {
    "links" : {
      "self" : "https://api.nasa.gov/neo/rest/v1/neo/3337711?api_key=jqAGvNAwUIBu4fl9FSOjdm3V4F7hIglRzI6pdX9d"
    },
    "neo_reference_id" : "3337711",
    "name" : "(2006 OB7)",
    "designation" : "2006 OB7",
    "nasa_jpl_url" : "http://ssd.jpl.nasa.gov/sbdb.cgi?sstr=3337711",
    "absolute_magnitude_h" : 23.9,
    "estimated_diameter" : {
      "kilometers" : {
        "estimated_diameter_min" : 0.04411182,
        "estimated_diameter_max" : 0.0986370281
      },
      "meters" : {
        "estimated_diameter_min" : 44.1118199997,
        "estimated_diameter_max" : 98.6370281305
      },
      "miles" : {
        "estimated_diameter_min" : 0.0274098057,
        "estimated_diameter_max" : 0.0612901888
      },
      "feet" : {
        "estimated_diameter_min" : 144.7238235278,
        "estimated_diameter_max" : 323.6123073718
      }
    },
    "is_potentially_hazardous_asteroid" : false,
    "close_approach_data" : [ {
      "close_approach_date" : "2003-06-18",
      "epoch_date_close_approach" : 1055919600000,
      "relative_velocity" : {
        "kilometers_per_second" : "15.422986179",
        "kilometers_per_hour" : "55522.7502445775",
        "miles_per_hour" : "34499.6777839154"
      },
      "miss_distance" : {
        "astronomical" : "0.2735147734",
        "lunar" : "106.3972473145",
        "kilometers" : "40917228",
        "miles" : "25424788"
      },
      "orbiting_body" : "Earth"
    }, {
      "close_approach_date" : "2006-07-25",
      "epoch_date_close_approach" : 1153810800000,
      "relative_velocity" : {
        "kilometers_per_second" : "7.6688910871",
        "kilometers_per_hour" : "27608.0079135802",
        "miles_per_hour" : "17154.5424727465"
      },
      "miss_distance" : {
        "astronomical" : "0.0340810037",
        "lunar" : "13.2575111389",
        "kilometers" : "5098446",
        "miles" : "3168027.25"
      },
      "orbiting_body" : "Earth"
    }, {
      "close_approach_date" : "2009-09-16",
      "epoch_date_close_approach" : 1253084400000,
      "relative_velocity" : {
        "kilometers_per_second" : "14.6956931407",
        "kilometers_per_hour" : "52904.4953065355",
        "miles_per_hour" : "32872.7959864415"
      },
      "miss_distance" : {
        "astronomical" : "0.2800992831",
        "lunar" : "108.9586181641",
        "kilometers" : "41902256",
        "miles" : "26036854"
      },
      "orbiting_body" : "Earth"
    } ],
    "orbital_data" : {
      "orbit_id" : "10",
      "orbit_determination_date" : "2017-04-06 09:08:21",
      "first_observation_date" : "2006-07-24",
      "last_observation_date" : "2006-08-11",
      "data_arc_in_days" : 18,
      "observations_used" : 38,
      "orbit_uncertainty" : "8",
      "minimum_orbit_intersection" : ".0312718",
      "jupiter_tisserand_invariant" : "3.557",
      "epoch_osculation" : "2453947.5",
      "eccentricity" : ".5104576673378456",
      "semi_major_axis" : "2.107096605949648",
      "inclination" : "6.591198140666583",
      "ascending_node_longitude" : "289.95092318",
      "orbital_period" : "1117.185005741381",
      "perihelion_distance" : "1.031512987621099",
      "perihelion_argument" : "22.5941354711251",
      "aphelion_distance" : "3.182680224278197",
      "perihelion_time" : "2453951.275938889464",
      "mean_anomaly" : "358.7832471853621",
      "mean_motion" : ".3222384816748399",
      "equinox" : "J2000",
      "orbit_class" : {
        "orbit_class_type" : "AMO",
        "orbit_class_range" : "1.017 AU < q (perihelion) < 1.3 AU",
        "orbit_class_description" : "Near-Earth asteroid orbits similar to that of 1221 Amor"
      }
    },
    "is_sentry_object" : false
  } ]
}